00433   11.16  0.46 K1985 103.19260  178.84531  304.30277   10.82872  0.2227412  0.55971324   1.4582288  0 MPO467611  8406  52 1893-2019 0.69 M-v 38h MPCLINUX   1804    (433) Eros               20190509 2458516.13308 A898 PA    1956 PC   
04596   16.4   0.15 K1985  91.33338  248.42231  154.22753   37.07555  0.5199479  0.29420002   2.2389321  1 MPO467684   408  15 1981-2019 0.61 M-v 3Eh MPCLINUX   1804   (4596) 1981 QB            20190403 2458390.05343 
PLS6344 20.4   0.15 K1985 177.79876  234.72015  183.21152    4.68922  0.6639687  0.20877678   2.8141544  0 MPO157548   114   3 1960-2008 0.44 M-v 3Eh MPCW       8803          6344 P-L           20080203 2457848.87834 2007 RR9  
